{"_default": { "31": {"norad_id": "37214", "name": "FENGYUN 3B", "tle1": "1 37214U 10059A   26164.28705491  .00000322  00000-0  18963-3 0  9994", "tle2": "2 37214  98.9626 210.2850 0021697 195.2851 298.3334 14.14841023806872", "object_type": "PAYLOAD", "criticality_score": 9.0, "last_updated": "2026-06-13T17:29:25.184973+00:00", "maneuver_count": 0, "owner": "N/A"}, "32": {"norad_id": "36799", "name": "TISAT 1", "tle1": "1 36799U 10035E   26163.80523880  .00022701  00000-0  74651-3 0  9993", "tle2": "2 36799  98.0703 109.9656 0000770 172.9333 187.1918 15.31550354867032", "object_type": "PAYLOAD", "criticality_score": 9.0, "last_updated": "2026-06-13T17:29:25.184973+00:00", "maneuver_count": 0, "owner": "N/A"}, "33": {"norad_id": "33591", "name": "NOAA 19", "tle1": "1 33591U 09005A   26164.29843454  .00000032  00000-0  40812-4 0  9997", "tle2": "2 33591  98.9520 235.1704 0014448  44.9509 315.2830 14.13473748893936", "object_type": "PAYLOAD", "criticality_score": 9.0, "last_updated": "2026-06-13T17:29:25.184973+00:00", "maneuver_count": 0, "owner": "N/A"}, "61": {"norad_id": "37224", "name": "O/OREOS (USA 219)", "tle1": "1 37224U 10062C   26164.17795551  .00002250  00000-0  21804-3 0  9993", "tle2": "2 37224  71.9712  89.4205 0012440  71.8416 288.4108 14.93728493116046", "object_type": "PAYLOAD", "criticality_score": 9.0, "last_updated": "2026-06-13T17:29:25.184973+00:00", "maneuver_count": 0, "owner": "N/A"}, "62": {"norad_id": "36795", "name": "CARTOSAT 2B", "tle1": "1 36795U 10035A   26164.27948965  .00000088  00000-0  19204-4 0  9994", "tle2": "2 36795  97.9960 214.8540 0010848 196.7959 163.2894 14.78654814859275", "object_type": "PAYLOAD", "criticality_score": 9.0, "last_updated": "2026-06-13T17:29:25.184973+00:00", "maneuver_count": 0, "owner": "N/A"}, "63": {"norad_id": "36122", "name": "XIWANG-1 (HOPE-1)", "tle1": "1 36122U 09072B   26164.21592706  .00000396  00000-0  11530-2 0  9993", "tle2": "2 36122 100.4020 118.1111 0006818 241.4197 118.6231 13.16441312792486", "object_type": "PAYLOAD", "criticality_score": 9.0, "last_updated": "2026-06-13T17:29:25.184973+00:00", "maneuver_count": 0, "owner": "N/A"}, "64": {"norad_id": "35935", "name": "ITUPSAT 1", "tle1": "1 35935U 09051E   26164.26372436  .00000683  00000-0  15114-3 0  9994", "tle2": "2 35935  98.4054  70.9235 0006148 248.6693 111.3850 14.60435247888166", "object_type": "PAYLOAD", "criticality_score": 9.0, "last_updated": "2026-06-13T17:29:25.184973+00:00", "maneuver_count": 0, "owner": "N/A"}, "65": {"norad_id": "35933", "name": "BEESAT", "tle1": "1 35933U 09051C   26164.27625783  .00000762  00000-0  16281-3 0  9993", "tle2": "2 35933  98.3969  71.7400 0004035 232.2675 127.8160 14.61714735888612", "object_type": "PAYLOAD", "criticality_score": 9.0, "last_updated": "2026-06-13T17:29:25.184973+00:00", "maneuver_count": 0, "owner": "N/A"}, "66": {"norad_id": "35932", "name": "SWISSCUBE", "tle1": "1 35932U 09051B   26164.20044227  .00000907  00000-0  18888-3 0  9999", "tle2": "2 35932  98.4039  72.0192 0005730 217.2214 142.8591 14.62474657888574", "object_type": "PAYLOAD", "criticality_score": 9.0, "last_updated": "2026-06-13T17:29:25.184973+00:00", "maneuver_count": 0, "owner": "N/A"}, "67": {"norad_id": "33499", "name": "KKS-1 (KISEKI)", "tle1": "1 33499U 09002H   26164.27608280  .00001235  00000-0  15833-3 0  9995", "tle2": "2 33499  98.1193  86.6563 0006728 310.9846  49.0784 14.83114847935616", "object_type": "PAYLOAD", "criticality_score": 9.0, "last_updated": "2026-06-13T17:29:25.184973+00:00", "maneuver_count": 0, "owner": "N/A"}, "89": {"norad_id": "37841", "name": "SRMSAT", "tle1": "1 37841U 11058D   26163.50299332  .00000363  00000-0  53009-4 0  9992", "tle2": "2 37841  19.9716  87.8194 0011893 152.1713   3.7826 14.11574639757159", "object_type": "PAYLOAD", "criticality_score": 9.0, "last_updated": "2026-06-13T17:29:25.184973+00:00", "maneuver_count": 0, "owner": "N/A"}, "90": {"norad_id": "37839", "name": "JUGNU", "tle1": "1 37839U 11058B   26164.15216560  .00000403  00000-0  70847-4 0  9997", "tle2": "2 37839  19.9620 332.9425 0018602  31.8631 131.2795 14.13775702758450", "object_type": "PAYLOAD", "criticality_score": 9.0, "last_updated": "2026-06-13T17:29:25.184973+00:00", "maneuver_count": 0, "owner": "N/A"}, "122": {"norad_id": "35865", "name": "METEOR-M", "tle1": "1 35865U 09049A   26164.13831127  .00000055  00000-0  43879-4 0  9999", "tle2": "2 35865  98.7385 126.6411 0001832 351.7691   8.3457 14.23156015868676", "object_type": "PAYLOAD", "criticality_score": 9.0, "last_updated": "2026-06-13T17:29:25.184973+00:00", "maneuver_count": 0, "owner": "N/A"}, "123": {"norad_id": "33498", "name": "STARS (KUKAI)", "tle1": "1 33498U 09002G   26163.80376203  .00004716  00000-0  42872-3 0  9999", "tle2": "2 33498  98.1547 110.9334 0008545 171.7737 188.3625 14.95723199937821", "object_type": "PAYLOAD", "criticality_score": 9.0, "last_updated": "2026-06-13T17:29:25.184973+00:00", "maneuver_count": 0, "owner": "N/A"}, "259": {"norad_id": "36037", "name": "PROBA 2", "tle1": "1 36037U 09059B   26164.25148966  .00000175  00000-0  51420-4 0  9991", "tle2": "2 36037  98.2449 347.6589 0012057 295.5831  64.4120 14.54860849880953", "object_type": "PAYLOAD", "criticality_score": 9.0, "last_updated": "2026-06-13T17:29:25.184973+00:00", "maneuver_count": 0, "owner": "N/A"}, "299": {"norad_id": "36797", "name": "AISSAT 1", "tle1": "1 36797U 10035C   26164.26746321  .00002948  00000-0  25910-3 0  9994", "tle2": "2 36797  98.0931  63.3732 0010734  74.4836 285.7569 14.97346493863633", "object_type": "PAYLOAD", "criticality_score": 9.0, "last_updated": "2026-06-13T17:29:25.184973+00:00", "maneuver_count": 0, "owner": "N/A"}, "302": {"norad_id": "37388", "name": "YOUTHSAT", "tle1": "1 37388U 11015B   26163.94613620  .00000169  00000-0  88806-4 0  9996", "tle2": "2 37388  98.3681 138.1915 0014500 359.6366  65.8808 14.25628735787035", "object_type": "PAYLOAD", "criticality_score": 9.0, "last_updated": "2026-06-13T17:29:25.184973+00:00", "maneuver_count": 0, "owner": "N/A"}, "343": {"norad_id": "36519", "name": "COSMOS 2463", "tle1": "1 36519U 10017A   26164.32418209  .00000036  00000-0  23029-4 0  9990", "tle2": "2 36519  82.9605 252.5437 0037173 139.2526 282.7173 13.71665412807408", "object_type": "PAYLOAD", "criticality_score": 9.0, "last_updated": "2026-06-13T17:29:25.184973+00:00", "maneuver_count": 0, "owner": "N/A"}, "368": {"norad_id": "37344", "name": "ELEKTRO-L", "tle1": "1 37344U 11001A   26164.24107392 -.00000045  00000-0  00000-0 0  9991", "tle2": "2 37344   9.6767  54.5451 0004034  31.0707 152.8638  1.00155644 56449", "object_type": "PAYLOAD", "criticality_score": 9.0, "last_updated": "2026-06-13T17:29:25.184973+00:00", "maneuver_count": 0, "owner": "N/A"}, "375": {"norad_id": "37793", "name": "APRIZESAT 6", "tle1": "1 37793U 11044F   26164.29548956  .00000684  00000-0  10353-3 0  9999", "tle2": "2 37793  98.2369  74.7156 0044484  98.1107  18.4461 14.76910502796571", "object_type": "PAYLOAD", "criticality_score": 9.0, "last_updated": "2026-06-13T17:29:25.184973+00:00", "maneuver_count": 0, "owner": "N/A"}, "463": {"norad_id": "37387", "name": "RESOURCESAT 2", "tle1": "1 37387U 11015A   26164.28834598  .00000065  00000-0  49894-4 0  9991", "tle2": "2 37387  98.7644 231.7570 0010144 268.0499  91.9516 14.21605612785628", "object_type": "PAYLOAD", "criticality_score": 9.0, "last_updated": "2026-06-13T17:29:25.184973+00:00", "maneuver_count": 0, "owner": "N/A"}, "472": {"norad_id": "35951", "name": "DMSP 5D-3 F18 (USA 210)", "tle1": "1 35951U 09057A   26164.25169311  .00000236  00000-0  14509-3 0  9994", "tle2": "2 35951  98.9036 145.0294 0009846 262.0226  97.9830 14.14894783859032", "object_type": "PAYLOAD", "criticality_score": 9.0, "last_updated": "2026-06-13T17:29:25.184973+00:00", "maneuver_count": 0, "owner": "N/A"}, "473": {"norad_id": "36834", "name": "YAOGAN 10", "tle1": "1 36834U 10038A   26164.32062326  .00002422  00000-0  28786-3 0  9993", "tle2": "2 36834  97.8981 187.7559 0001731  89.3596  32.6818 14.85340784856632", "object_type": "PAYLOAD", "criticality_score": 9.0, "last_updated": "2026-06-13T17:29:25.184973+00:00", "maneuver_count": 0, "owner": "N/A"}, "475": {"norad_id": "35931", "name": "OCEANSAT 2", "tle1": "1 35931U 09051A   26164.26782846 -.00000035  00000-0  20286-5 0  9990", "tle2": "2 35931  98.2333 151.5102 0014913 247.8964 112.0619 13.99664810878789", "object_type": "PAYLOAD", "criticality_score": 9.0, "last_updated": "2026-06-13T17:29:25.184973+00:00", "maneuver_count": 0, "owner": "N/A"}, "498": {"norad_id": "36110", "name": "YAOGAN 7", "tle1": "1 36110U 09069A   26164.22991532  .00000473  00000-0  72557-4 0  9991", "tle2": "2 36110  98.0077  50.1213 0025777  53.9806 306.3788 14.78006200889047", "object_type": "PAYLOAD", "criticality_score": 9.0, "last_updated": "2026-06-13T17:29:25.184973+00:00", "maneuver_count": 0, "owner": "N/A"}, "510": {"norad_id": "37216", "name": "SKYMED 4", "tle1": "1 37216U 10060A   26164.32560672  .00000198  00000-0  31374-4 0  9996", "tle2": "2 37216  97.8885 347.9816 0001390  82.6881 277.4490 14.82148957843995", "object_type": "PAYLOAD", "criticality_score": 9.0, "last_updated": "2026-06-13T17:29:25.184973+00:00", "maneuver_count": 0, "owner": "N/A"}, "534": {"norad_id": "33434", "name": "CHUANG XIN 1-02(CX-1-02)", "tle1": "1 33434U 08056B   26164.30965751  .00000114  00000-0  61114-4 0  9994", "tle2": "2 33434  98.6140 190.6151 0014785 147.3078 212.9023 14.30152688918066", "object_type": "PAYLOAD", "criticality_score": 9.0, "last_updated": "2026-06-13T17:29:25.184973+00:00", "maneuver_count": 0, "owner": "N/A"}, "644": {"norad_id": "37180", "name": "SHIJIAN 6 04B (SJ-6 04B)", "tle1": "1 37180U 10051B   26164.28559716  .00001175  00000-0  10120-3 0  9999", "tle2": "2 37180  97.8682 169.6557 0008508 327.1747  32.8946 14.99305402855098", "object_type": "PAYLOAD", "criticality_score": 9.0, "last_updated": "2026-06-13T17:29:25.184973+00:00", "maneuver_count": 0, "owner": "N/A"}, "660": {"norad_id": "36358", "name": "RADUGA 1M-2", "tle1": "1 36358U 10002A   26164.25632506 -.00000223  00000-0  00000-0 0  9994", "tle2": "2 36358   3.6104  78.9054 0005730 264.9521 337.2172  0.98968434 49984", "object_type": "PAYLOAD", "criticality_score": 9.0, "last_updated": "2026-06-13T17:29:25.184973+00:00", "maneuver_count": 0, "owner": "N/A"}}}